NILESAT 301             
1 52817U 22061A   22307.61963306 -.00000064  00000+0  00000+0 0  9991
2 52817   0.0445  28.4074 0003107 214.2963  16.2978  1.00273636  1496
CMS-02 (GSAT 24)        
1 52903U 22067A   22307.59052138 -.00000266  00000+0  00000+0 0  9996
2 52903   0.0504 269.7262 0004594 208.4481 230.7344  1.00270990  1375
MEASAT 3D               
1 52904U 22067B   22307.59041397 -.00000249  00000+0  00000+0 0  9993
2 52904   0.0325 323.2707 0002936 293.5431  90.0594  1.00267505  1401
SES-22                  
1 52933U 22071A   22308.67019003  .00000082  00000+0  00000+0 0  9993
2 52933   0.0096 240.1449 0002914 355.1845 274.8303  1.00271908  1310
WFOV (USA 332)          
1 52940U 22073A   22310.09007650 -.00000364  00000+0  00000+0 0  9991
2 52940   0.3072  98.9553 0002176 189.8561 268.1522  1.00266473  1137
TIANLIAN 2-03           
1 53100U 22078A   22310.39840969  .00000069  00000+0  00000+0 0  9997
2 53100   2.7372 283.8021 0000304 248.4985  27.4143  1.00275926  1322
SBIRS GEO-6 (USA 336)   
1 53355U 22092A   22310.20195049  .00000102  00000+0  00000+0 0  9995
2 53355   6.4138 312.0564 0003197 311.6567  69.4853  1.00268314  1006
CHINASAT 1E (ZX 1E)     
1 53813U 22112A   22309.16646872 -.00000155  00000+0  00000+0 0  9994
2 53813   1.3910 279.9191 0002410 290.5963 335.1521  1.00269660   612
SES-20                  
1 53960U 22123A   22309.67327966  .00000109  00000+0  00000+0 0  9993
2 53960   0.0419 256.9394 0002914 112.8133 136.3147  1.00273699   329
SES-21                  
1 53961U 22123B   22309.74469684  .00000114  00000+0  00000+0 0  9992
2 53961   0.0421 327.4390 0000129 128.4274  74.3460  1.00274912   337
